{
  "type": "FeatureCollection",
  "features": [
    {
      "type": "Feature",
      "properties": {
        "norad_id": 66174,
        "name": "HTV-X1",
        "group": "stations",
        "lat": 50.30710901772574,
        "lon": -130.36760258335514,
        "alt_km": 412.8737289742294,
        "timestamp": "2025-12-16T19:34:23.037823+00:00",
        "meta_object_name": "HTV-X1",
        "meta_object_id": "2025-241A",
        "meta_epoch": "2025-12-15T21:28:14.919168",
        "meta_mean_motion": 15.49611341,
        "meta_eccentricity": 0.0003169,
        "meta_inclination": 51.6305,
        "meta_ra_of_asc_node": 126.8563,
        "meta_arg_of_pericenter": 254.4589,
        "meta_mean_anomaly": 105.605,
        "meta_ephemeris_type": 0,
        "meta_classification_type": "U",
        "meta_norad_cat_id": 66174,
        "meta_element_set_no": 999,
        "meta_rev_at_epoch": 51,
        "meta_bstar": 0.00012896231,
        "meta_mean_motion_dot": 6.813e-05,
        "meta_mean_motion_ddot": 0,
        "tle_line1": "1 66174U 25241A   25349.89461712  .00006813  00000+0  12896-3 0  9995",
        "tle_line2": "2 66174  51.6305 126.8563 0003169 254.4589 105.6050 15.49611341   511"
      },
      "geometry": {
        "type": "Point",
        "coordinates": [
          -130.36760258335514,
          50.30710901772574
        ]
      }
    },
    {
      "type": "Feature",
      "properties": {
        "norad_id": 66515,
        "name": "SZ-21 MODULE",
        "group": "stations",
        "lat": -21.082355134000796,
        "lon": -34.69729882408181,
        "alt_km": 378.7371771534381,
        "timestamp": "2025-12-16T19:34:23.037833+00:00",
        "meta_object_name": "SZ-21 MODULE",
        "meta_object_id": "2025-246C",
        "meta_epoch": "2025-12-15T17:38:17.166624",
        "meta_mean_motion": 15.62644262,
        "meta_eccentricity": 0.00061674,
        "meta_inclination": 41.4776,
        "meta_ra_of_asc_node": 357.7735,
        "meta_arg_of_pericenter": 275.8419,
        "meta_mean_anomaly": 84.1717,
        "meta_ephemeris_type": 0,
        "meta_classification_type": "U",
        "meta_norad_cat_id": 66515,
        "meta_element_set_no": 999,
        "meta_rev_at_epoch": 491,
        "meta_bstar": 0.00022577355,
        "meta_mean_motion_dot": 0.00020523,
        "meta_mean_motion_ddot": 0,
        "tle_line1": "1 66515U 25246C   25349.73492091  .00020523  00000+0  22577-3 0  9997",
        "tle_line2": "2 66515  41.4776 357.7735 0006167 275.8419  84.1717 15.62644262  4917"
      },
      "geometry": {
        "type": "Point",
        "coordinates": [
          -34.69729882408181,
          -21.082355134000796
        ]
      }
    },
    {
      "type": "Feature",
      "properties": {
        "norad_id": 66645,
        "name": "SHENZHOU-22",
        "group": "stations",
        "lat": 6.369544035401394,
        "lon": -0.7799316029124811,
        "alt_km": 385.1922458108593,
        "timestamp": "2025-12-16T19:34:23.037845+00:00",
        "meta_object_name": "SHENZHOU-22",
        "meta_object_id": "2025-272A",
        "meta_epoch": "2025-12-15T17:24:02.570400",
        "meta_mean_motion": 15.59304358,
        "meta_eccentricity": 0.00079014,
        "meta_inclination": 41.4685,
        "meta_ra_of_asc_node": 358.5824,
        "meta_arg_of_pericenter": 56.1338,
        "meta_mean_anomaly": 304.0252,
        "meta_ephemeris_type": 0,
        "meta_classification_type": "U",
        "meta_norad_cat_id": 66645,
        "meta_element_set_no": 999,
        "meta_rev_at_epoch": 26357,
        "meta_bstar": 0.00018266576,
        "meta_mean_motion_dot": 0.00014504,
        "meta_mean_motion_ddot": 0,
        "tle_line1": "1 66645U 25272A   25349.72502975  .00014504  00000+0  18267-3 0  9995",
        "tle_line2": "2 66645  41.4685 358.5824 0007901  56.1338 304.0252 15.59304358263577"
      },
      "geometry": {
        "type": "Point",
        "coordinates": [
          -0.7799316029124811,
          6.369544035401394
        ]
      }
    },
    {
      "type": "Feature",
      "properties": {
        "norad_id": 66664,
        "name": "SOYUZ-MS 28",
        "group": "stations",
        "lat": 50.30710853429558,
        "lon": -130.36759943444088,
        "alt_km": 412.8737290109102,
        "timestamp": "2025-12-16T19:34:23.037855+00:00",
        "meta_object_name": "SOYUZ-MS 28",
        "meta_object_id": "2025-275A",
        "meta_epoch": "2025-12-15T21:28:14.919168",
        "meta_mean_motion": 15.49611341,
        "meta_eccentricity": 0.0003169,
        "meta_inclination": 51.6305,
        "meta_ra_of_asc_node": 126.8563,
        "meta_arg_of_pericenter": 254.4589,
        "meta_mean_anomaly": 105.605,
        "meta_ephemeris_type": 0,
        "meta_classification_type": "U",
        "meta_norad_cat_id": 66664,
        "meta_element_set_no": 999,
        "meta_rev_at_epoch": 128,
        "meta_bstar": 0.00012896231,
        "meta_mean_motion_dot": 6.813e-05,
        "meta_mean_motion_ddot": 0,
        "tle_line1": "1 66664U 25275A   25349.89461712  .00006813  00000+0  12896-3 0  9996",
        "tle_line2": "2 66664  51.6305 126.8563 0003169 254.4589 105.6050 15.49611341  1280"
      },
      "geometry": {
        "type": "Point",
        "coordinates": [
          -130.36759943444088,
          50.30710853429558
        ]
      }
    },
    {
      "type": "Feature",
      "properties": {
        "norad_id": 66906,
        "name": "1998-067XS",
        "group": "stations",
        "lat": 25.551446403772523,
        "lon": -80.0586024142268,
        "alt_km": 410.75907225700485,
        "timestamp": "2025-12-16T19:34:23.037875+00:00",
        "meta_object_name": "1998-067XS",
        "meta_object_id": "1998-067XS",
        "meta_epoch": "2025-12-15T16:39:04.886784",
        "meta_mean_motion": 15.50732342,
        "meta_eccentricity": 0.00032898,
        "meta_inclination": 51.6303,
        "meta_ra_of_asc_node": 127.7667,
        "meta_arg_of_pericenter": 216.5725,
        "meta_mean_anomaly": 143.504,
        "meta_ephemeris_type": 0,
        "meta_classification_type": "U",
        "meta_norad_cat_id": 66906,
        "meta_element_set_no": 999,
        "meta_rev_at_epoch": 207,
        "meta_bstar": 0.00035286566,
        "meta_mean_motion_dot": 0.00020263,
        "meta_mean_motion_ddot": 0,
        "tle_line1": "1 66906U 98067XS  25349.69380656  .00020263  00000+0  35287-3 0  9993",
        "tle_line2": "2 66906  51.6303 127.7667 0003289 216.5725 143.5040 15.50732342  2071"
      },
      "geometry": {
        "type": "Point",
        "coordinates": [
          -80.0586024142268,
          25.551446403772523
        ]
      }
    },
    {
      "type": "Feature",
      "properties": {
        "norad_id": 66907,
        "name": "1998-067XT",
        "group": "stations",
        "lat": 2.284333829498394,
        "lon": -59.67542649467008,
        "alt_km": 410.5773888192243,
        "timestamp": "2025-12-16T19:34:23.037896+00:00",
        "meta_object_name": "1998-067XT",
        "meta_object_id": "1998-067XT",
        "meta_epoch": "2025-12-15T19:37:52.461984",
        "meta_mean_motion": 15.51845045,
        "meta_eccentricity": 0.00041213,
        "meta_inclination": 51.6296,
        "meta_ra_of_asc_node": 127.0953,
        "meta_arg_of_pericenter": 244.2963,
        "meta_mean_anomaly": 115.7601,
        "meta_ephemeris_type": 0,
        "meta_classification_type": "U",
        "meta_norad_cat_id": 66907,
        "meta_element_set_no": 999,
        "meta_rev_at_epoch": 209,
        "meta_bstar": 0.00082636885,
        "meta_mean_motion_dot": 0.0005023,
        "meta_mean_motion_ddot": 0,
        "tle_line1": "1 66907U 98067XT  25349.81796831  .00050230  00000+0  82637-3 0  9992",
        "tle_line2": "2 66907  51.6296 127.0953 0004121 244.2963 115.7601 15.51845045  2094"
      },
      "geometry": {
        "type": "Point",
        "coordinates": [
          -59.67542649467008,
          2.284333829498394
        ]
      }
    },
    {
      "type": "Feature",
      "properties": {
        "norad_id": 66908,
        "name": "1998-067XU",
        "group": "stations",
        "lat": -0.18203182125179793,
        "lon": -57.727116549125924,
        "alt_km": 410.4401782482755,
        "timestamp": "2025-12-16T19:34:23.037908+00:00",
        "meta_object_name": "1998-067XU",
        "meta_object_id": "1998-067XU",
        "meta_epoch": "2025-12-15T18:04:25.292064",
        "meta_mean_motion": 15.51929885,
        "meta_eccentricity": 0.00042378,
        "meta_inclination": 51.6291,
        "meta_ra_of_asc_node": 127.4116,
        "meta_arg_of_pericenter": 243.4196,
        "meta_mean_anomaly": 116.636,
        "meta_ephemeris_type": 0,
        "meta_classification_type": "U",
        "meta_norad_cat_id": 66908,
        "meta_element_set_no": 999,
        "meta_rev_at_epoch": 208,
        "meta_bstar": 0.00081150303,
        "meta_mean_motion_dot": 0.00049466,
        "meta_mean_motion_ddot": 0,
        "tle_line1": "1 66908U 98067XU  25349.75307051  .00049466  00000+0  81150-3 0  9996",
        "tle_line2": "2 66908  51.6291 127.4116 0004237 243.4196 116.6360 15.51929885  2088"
      },
      "geometry": {
        "type": "Point",
        "coordinates": [
          -57.727116549125924,
          -0.18203182125179793
        ]
      }
    }
  ]
}